start=new Date('2023-04-17T00:00:00.000Z').valueOf();
sats=[{"MEAN_MOTION":"15.08843465","APOAPSIS":"540.581","SITE":"AFETR","MEAN_MOTION_DOT":"0.00001884","CLASSIFICATION_TYPE":"U","LAUNCH_DATE":"2022-09-24","REF_FRAME":"TEME","RA_OF_ASC_NODE":"35.5938","MEAN_ELEMENT_THEORY":"SGP4","REV_AT_EPOCH":"3189","NORAD_CAT_ID":"53901","OBJECT_NAME":"STARLINK-5024","COUNTRY_CODE":"US","DECAY_DATE":null,"INCLINATION":"53.2175","MEAN_MOTION_DDOT":"0.0000000000000","OBJECT_TYPE":"PAYLOAD","PERIAPSIS":"538.889","CENTER_NAME":"EARTH","FILE":"3888626","ELEMENT_SET_NO":"999","RCS_SIZE":"LARGE","OBJECT_ID":"2022-119R","ECCENTRICITY":"0.00012230","PERIOD":"95.437","MEAN_ANOMALY":"275.0382","EPOCH":"2023-04-16T05:08:45.518208","EPHEMERIS_TYPE":"0","TIME_SYSTEM":"UTC","ARG_OF_PERICENTER":"85.0750","GP_ID":"230170865","SEMIMAJOR_AXIS":"6917.870","BSTAR":"0.00013642000000","TLE_LINE2":"2 53901  53.2175  35.5938 0001223  85.0750 275.0382 15.08843465 31891","TLE_LINE1":"1 53901U 22119R   23106.21441572  .00001884  00000-0  13642-3 0  9991"},{"CLASSIFICATION_TYPE":"U","LAUNCH_DATE":"2022-09-24","MEAN_MOTION_DOT":"0.00000933","APOAPSIS":"540.562","SITE":"AFETR","MEAN_MOTION":"15.08838869","DECAY_DATE":null,"COUNTRY_CODE":"US","OBJECT_NAME":"STARLINK-5021","MEAN_ELEMENT_THEORY":"SGP4","REV_AT_EPOCH":"3269","NORAD_CAT_ID":"53902","REF_FRAME":"TEME","RA_OF_ASC_NODE":"342.6585","EPHEMERIS_TYPE":"0","ARG_OF_PERICENTER":"103.6143","TIME_SYSTEM":"UTC","OBJECT_ID":"2022-119S","PERIOD":"95.438","ECCENTRICITY":"0.00011760","MEAN_ANOMALY":"256.4981","EPOCH":"2023-04-16T20:49:25.557888","PERIAPSIS":"538.935","OBJECT_TYPE":"PAYLOAD","FILE":"3888799","CENTER_NAME":"EARTH","ELEMENT_SET_NO":"999","RCS_SIZE":"LARGE","INCLINATION":"53.2173","MEAN_MOTION_DDOT":"0.0000000000000","TLE_LINE2":"2 53902  53.2173 342.6585 0001176 103.6143 256.4981 15.08838869 32699","TLE_LINE1":"1 53902U 22119S   23106.86765692  .00000933  00000-0  76724-4 0  9990","SEMIMAJOR_AXIS":"6917.884","BSTAR":"0.00007672400000","GP_ID":"230200617"},{"RA_OF_ASC_NODE":"35.5255","REF_FRAME":"TEME","REV_AT_EPOCH":"3189","NORAD_CAT_ID":"53903","MEAN_ELEMENT_THEORY":"SGP4","COUNTRY_CODE":"US","OBJECT_NAME":"STARLINK-5022","DECAY_DATE":null,"MEAN_MOTION":"15.08846055","SITE":"AFETR","APOAPSIS":"540.485","MEAN_MOTION_DOT":"-0.00001178","LAUNCH_DATE":"2022-09-24","CLASSIFICATION_TYPE":"U","GP_ID":"230169871","BSTAR":"-0.00005593100000","SEMIMAJOR_AXIS":"6917.862","TLE_LINE1":"1 53903U 22119T   23106.20336073 -.00001178  00000-0 -55931-4 0  9997","TLE_LINE2":"2 53903  53.2179  35.5255 0001096  96.6561 263.4556 15.08846055 31897","INCLINATION":"53.2179","MEAN_MOTION_DDOT":"0.0000000000000","ELEMENT_SET_NO":"999","RCS_SIZE":"LARGE","FILE":"3888626","CENTER_NAME":"EARTH","OBJECT_TYPE":"PAYLOAD","PERIAPSIS":"538.969","PERIOD":"95.437","MEAN_ANOMALY":"263.4556","ECCENTRICITY":"0.00010960","EPOCH":"2023-04-16T04:52:50.367072","OBJECT_ID":"2022-119T","TIME_SYSTEM":"UTC","ARG_OF_PERICENTER":"96.6561","EPHEMERIS_TYPE":"0"},{"EPHEMERIS_TYPE":"0","ARG_OF_PERICENTER":"100.8254","TIME_SYSTEM":"UTC","OBJECT_ID":"2022-119U","PERIOD":"95.438","ECCENTRICITY":"0.00014560","MEAN_ANOMALY":"259.2902","EPOCH":"2023-04-16T19:00:42.306048","OBJECT_TYPE":"PAYLOAD","PERIAPSIS":"538.740","CENTER_NAME":"EARTH","FILE":"3888799","ELEMENT_SET_NO":"999","RCS_SIZE":"LARGE","MEAN_MOTION_DDOT":"0.0000000000000","INCLINATION":"53.2178","TLE_LINE2":"2 53904  53.2178  32.8082 0001456 100.8254 259.2902 15.08839274 31985","TLE_LINE1":"1 53904U 22119U   23106.79215632  .00007347  00000-0  47921-3 0  9990","SEMIMAJOR_AXIS":"6917.883","BSTAR":"0.00047921000000","GP_ID":"230201118","CLASSIFICATION_TYPE":"U","LAUNCH_DATE":"2022-09-24","MEAN_MOTION_DOT":"0.00007347","APOAPSIS":"540.755","SITE":"AFETR","MEAN_MOTION":"15.08839274","DECAY_DATE":null,"OBJECT_NAME":"STARLINK-4787","COUNTRY_CODE":"US","MEAN_ELEMENT_THEORY":"SGP4","REV_AT_EPOCH":"3198","NORAD_CAT_ID":"53904","REF_FRAME":"TEME","RA_OF_ASC_NODE":"32.8082"},{"OBJECT_NAME":"STARLINK-5003","COUNTRY_CODE":"US","DECAY_DATE":null,"REF_FRAME":"TEME","RA_OF_ASC_NODE":"22.8755","MEAN_ELEMENT_THEORY":"SGP4","NORAD_CAT_ID":"53905","REV_AT_EPOCH":"3213","MEAN_MOTION_DOT":"0.00016269","CLASSIFICATION_TYPE":"U","LAUNCH_DATE":"2022-09-24","MEAN_MOTION":"15.08833175","APOAPSIS":"540.636","SITE":"AFETR","TLE_LINE2":"2 53905  53.2185  22.8755 0001257  72.8194 287.2936 15.08833175 32130","TLE_LINE1":"1 53905U 22119V   23106.91459493  .00016269  00000-0  10381-2 0  9992","GP_ID":"230200077","SEMIMAJOR_AXIS":"6917.901","BSTAR":"0.00103810000000","OBJECT_ID":"2022-119V","ECCENTRICITY":"0.00012570","PERIOD":"95.438","MEAN_ANOMALY":"287.2936","EPOCH":"2023-04-16T21:57:01.001952","EPHEMERIS_TYPE":"0","ARG_OF_PERICENTER":"72.8194","TIME_SYSTEM":"UTC","MEAN_MOTION_DDOT":"0.0000000000000","INCLINATION":"53.2185","PERIAPSIS":"538.897","OBJECT_TYPE":"PAYLOAD","CENTER_NAME":"EARTH","FILE":"3888799","ELEMENT_SET_NO":"999","RCS_SIZE":"LARGE"},{"SEMIMAJOR_AXIS":"6917.850","BSTAR":"0.00108740000000","GP_ID":"230200117","TLE_LINE2":"2 53906  53.2179  22.8642 0002011  72.5762 287.5450 15.08849989 32129","TLE_LINE1":"1 53906U 22119W   23106.79676727  .00017065  00000-0  10874-2 0  9992","OBJECT_TYPE":"PAYLOAD","PERIAPSIS":"538.324","FILE":"3888799","CENTER_NAME":"EARTH","ELEMENT_SET_NO":"999","RCS_SIZE":"LARGE","MEAN_MOTION_DDOT":"0.0000000000000","INCLINATION":"53.2179","EPHEMERIS_TYPE":"0","ARG_OF_PERICENTER":"72.5762","TIME_SYSTEM":"UTC","OBJECT_ID":"2022-119W","PERIOD":"95.437","ECCENTRICITY":"0.00020110","MEAN_ANOMALY":"287.5450","EPOCH":"2023-04-16T19:07:20.692128","MEAN_ELEMENT_THEORY":"SGP4","REV_AT_EPOCH":"3212","NORAD_CAT_ID":"53906","REF_FRAME":"TEME","RA_OF_ASC_NODE":"22.8642","DECAY_DATE":null,"OBJECT_NAME":"STARLINK-5054","COUNTRY_CODE":"US","APOAPSIS":"541.106","SITE":"AFETR","MEAN_MOTION":"15.08849989","CLASSIFICATION_TYPE":"U","LAUNCH_DATE":"2022-09-24","MEAN_MOTION_DOT":"0.00017065"},{"DECAY_DATE":null,"COUNTRY_CODE":"US","OBJECT_NAME":"STARLINK-5063","MEAN_ELEMENT_THEORY":"SGP4","NORAD_CAT_ID":"53907","REV_AT_EPOCH":"3198","REF_FRAME":"TEME","RA_OF_ASC_NODE":"32.7866","CLASSIFICATION_TYPE":"U","LAUNCH_DATE":"2022-09-24","MEAN_MOTION_DOT":"0.00001170","APOAPSIS":"540.939","SITE":"AFETR","MEAN_MOTION":"15.08835417","TLE_LINE2":"2 53907  53.2188  32.7866 0001705  66.2693 293.8478 15.08835417 31984","TLE_LINE1":"1 53907U 22119X   23106.78847769  .00001170  00000-0  91623-4 0  9991","SEMIMAJOR_AXIS":"6917.894","BSTAR":"0.00009162300000","GP_ID":"230200364","EPHEMERIS_TYPE":"0","ARG_OF_PERICENTER":"66.2693","TIME_SYSTEM":"UTC","OBJECT_ID":"2022-119X","PERIOD":"95.438","MEAN_ANOMALY":"293.8478","EPOCH":"2023-04-16T18:55:24.472416","ECCENTRICITY":"0.00017050","PERIAPSIS":"538.580","OBJECT_TYPE":"PAYLOAD","ELEMENT_SET_NO":"999","RCS_SIZE":"LARGE","CENTER_NAME":"EARTH","FILE":"3888799","MEAN_MOTION_DDOT":"0.0000000000000","INCLINATION":"53.2188"},{"REF_FRAME":"TEME","RA_OF_ASC_NODE":"22.8338","MEAN_ELEMENT_THEORY":"SGP4","REV_AT_EPOCH":"3213","NORAD_CAT_ID":"53908","COUNTRY_CODE":"US","OBJECT_NAME":"STARLINK-5057","DECAY_DATE":null,"MEAN_MOTION":"15.08814837","APOAPSIS":"540.576","SITE":"AFETR","MEAN_MOTION_DOT":"-0.00007073","CLASSIFICATION_TYPE":"U","LAUNCH_DATE":"2022-09-24","GP_ID":"230201619","SEMIMAJOR_AXIS":"6917.957","BSTAR":"-0.00042704000000","TLE_LINE2":"2 53908  53.2180  22.8338 0001090  86.8353 273.2764 15.08814837 32130","TLE_LINE1":"1 53908U 22119Y   23106.90722355 -.00007073  00000-0 -42704-3 0  9994","INCLINATION":"53.2180","MEAN_MOTION_DDOT":"0.0000000000000","OBJECT_TYPE":"PAYLOAD","PERIAPSIS":"539.068","FILE":"3888799","CENTER_NAME":"EARTH","RCS_SIZE":"LARGE","ELEMENT_SET_NO":"999","OBJECT_ID":"2022-119Y","ECCENTRICITY":"0.00010900","PERIOD":"95.439","MEAN_ANOMALY":"273.2764","EPOCH":"2023-04-16T21:46:24.114720","EPHEMERIS_TYPE":"0","TIME_SYSTEM":"UTC","ARG_OF_PERICENTER":"86.8353"},{"LAUNCH_DATE":"2022-09-24","CLASSIFICATION_TYPE":"U","MEAN_MOTION_DOT":"0.00015020","SITE":"AFETR","APOAPSIS":"540.751","MEAN_MOTION":"15.08833450","DECAY_DATE":null,"OBJECT_NAME":"STARLINK-4796","COUNTRY_CODE":"US","REV_AT_EPOCH":"3211","NORAD_CAT_ID":"53909","MEAN_ELEMENT_THEORY":"SGP4","RA_OF_ASC_NODE":"23.4909","REF_FRAME":"TEME","TIME_SYSTEM":"UTC","ARG_OF_PERICENTER":"87.2449","EPHEMERIS_TYPE":"0","ECCENTRICITY":"0.00014240","PERIOD":"95.438","MEAN_ANOMALY":"272.8706","EPOCH":"2023-04-16T18:51:33.078528","OBJECT_ID":"2022-119Z","RCS_SIZE":"LARGE","ELEMENT_SET_NO":"999","FILE":"3888799","CENTER_NAME":"EARTH","PERIAPSIS":"538.780","OBJECT_TYPE":"PAYLOAD","INCLINATION":"53.2185","MEAN_MOTION_DDOT":"0.0000000000000","TLE_LINE1":"1 53909U 22119Z   23106.78579952  .00015020  00000-0  95996-3 0  9994","TLE_LINE2":"2 53909  53.2185  23.4909 0001424  87.2449 272.8706 15.08833450 32110","BSTAR":"0.00095996000000","SEMIMAJOR_AXIS":"6917.900","GP_ID":"230200578"},{"TLE_LINE2":"2 53910  53.2174  26.0576 0001359 107.3481 252.7660 15.08844790 32021","TLE_LINE1":"1 53910U 22119AA  23106.17120713  .00001690  00000-0  12425-3 0  9990","GP_ID":"230170607","SEMIMAJOR_AXIS":"6917.866","BSTAR":"0.00012425000000","OBJECT_ID":"2022-119AA","MEAN_ANOMALY":"252.7660","PERIOD":"95.437","ECCENTRICITY":"0.00013590","EPOCH":"2023-04-16T04:06:32.296032","EPHEMERIS_TYPE":"0","TIME_SYSTEM":"UTC","ARG_OF_PERICENTER":"107.3481","INCLINATION":"53.2174","MEAN_MOTION_DDOT":"0.0000000000000","PERIAPSIS":"538.791","OBJECT_TYPE":"PAYLOAD","RCS_SIZE":"LARGE","ELEMENT_SET_NO":"999","FILE":"3888626","CENTER_NAME":"EARTH","OBJECT_NAME":"STARLINK-5056","COUNTRY_CODE":"US","DECAY_DATE":null,"REF_FRAME":"TEME","RA_OF_ASC_NODE":"26.0576","MEAN_ELEMENT_THEORY":"SGP4","NORAD_CAT_ID":"53910","REV_AT_EPOCH":"3202","MEAN_MOTION_DOT":"0.00001690","CLASSIFICATION_TYPE":"U","LAUNCH_DATE":"2022-09-24","MEAN_MOTION":"15.08844790","APOAPSIS":"540.671","SITE":"AFETR"}];
